OBJECT_NAME,OBJECT_ID,EPOCH,MEAN_MOTION,ECCENTRICITY,INCLINATION,RA_OF_ASC_NODE,ARG_OF_PERICENTER,MEAN_ANOMALY,EPHEMERIS_TYPE,CLASSIFICATION_TYPE,NORAD_CAT_ID,ELEMENT_SET_NO,REV_AT_EPOCH,BSTAR,MEAN_MOTION_DOT,MEAN_MOTION_DDOT
SAUDISAT 1C (SO-50),2002-058C,2026-06-15T03:10:32.847168,14.83043109,.0075311,64.5510,135.3431,262.8571,96.3968,0,U,27607,999,26415,.12359E-3,.901E-5,0
SAUDISAT 2,2004-025F,2026-06-14T23:14:19.571712,14.56682813,.0023677,98.5507,165.8928,305.3890,54.5095,0,U,28371,999,16542,.60845E-4,.223E-5,0
SAUDISAT 3,2007-012B,2026-06-15T03:36:53.500608,14.71424528,.0013527,98.1456,116.5498,230.7744,129.2262,0,U,31118,999,2744,.42403E-4,.212E-5,0
PISAT,2016-059B,2026-06-14T23:08:36.309696,14.68980131,.0028188,97.8179,166.5126,210.0908,149.8680,0,U,41784,999,51941,.13601E-3,.754E-5,0
FLYING LAPTOP,2017-042G,2026-06-15T04:27:31.982112,15.01133413,.0019559,97.4673,321.7954,128.3139,231.9848,0,U,42831,999,48615,.22668E-3,.2857E-4,0
SALSAT,2020-068K,2026-06-14T23:41:15.080640,15.29772719,.0008203,97.8843,168.9175,317.5916,42.4688,0,U,46495,999,31502,.24187E-3,.6897E-4,0
